{
  "norad_id": 66498,
  "name": "STARLINK-35907",
  "history": [
    {
      "epoch": "2026-03-28T18:18:07.590240Z",
      "apogee_km": 484.0367315016165,
      "perigee_km": 481.92076340510175,
      "latitude_deg": 5.933915050797536e-05,
      "longitude_deg": 142.47016053444298,
      "height_km": 482.92382949369215,
      "semi_major_axis_km": 6861.115747453358,
      "eccentricity": 0.0001542,
      "inclination_deg": 42.996,
      "raan_deg": 243.1801,
      "arg_perigee_deg": 260.8216,
      "mean_anomaly_deg": 99.2462,
      "mean_motion_rev_day": 15.27603494
    }
  ]
}